SL-3 R/B                
1 19046U 88032B   26082.22815429  .00006237  00000+0  28983-3 0  9992
2 19046  97.5214  65.4343 0025719 182.6369 177.4735 15.20055452 54163
SL-16 R/B               
1 19120U 88039B   26082.15681306 -.00000082  00000+0 -15822-4 0  9992
2 19120  71.0157  40.0694 0023415 314.9337  44.9888 14.19617698960293
COSMOS 1953             
1 19210U 88050A   26082.24127979  .00009239  00000+0  32880-3 0  9999
2 19210  82.5081 144.6167 0012572  80.2703 279.9956 15.28738863 39858
SL-8 R/B                
1 19257U 88053B   26082.21642763  .00000339  00000+0  11836-3 0  9993
2 19257  74.0451  87.5300 0021529 265.0330 169.7080 14.38924965978543
COSMOS 1975             
1 19573U 88093A   26082.01731841  .00008419  00000+0  30403-3 0  9990
2 19573  82.5164 104.3017 0013163 120.1135 240.1411 15.28243936 21443
SL-14 R/B               
1 19574U 88093B   26082.12314723  .00000634  00000+0  70172-4 0  9998
2 19574  82.5331  29.4344 0020626 358.2753  12.4669 14.85672338  3014
SL-16 R/B               
1 19650U 88102B   26082.18426364 -.00000240  00000+0 -97091-4 0  9999
2 19650  70.9982 123.1041 0014893 340.7625  19.2934 14.16155110928802
INTERCOSMOS 24          
1 20261U 89080A   26082.30581840  .00000573  00000+0  17014-3 0  9993
2 20261  82.6014  95.5348 1186748 261.1852  85.3351 12.59576112668518
SL-14 R/B               
1 20262U 89080C   26082.23910365  .00000459  00000+0  13065-3 0  9999
2 20262  82.5966 164.4918 1230851 153.7936 213.1191 12.50507425661841
DELTA 1 R/B             
1 20323U 89089B   26082.27799978  .00000352  00000+0  95353-4 0  9998
2 20323  97.0695 287.5543 0070684  79.8979 281.0184 14.50674109897708
ARIANE 40 R/B           
1 20443U 90005H   26082.01680353  .00000276  00000+0  10115-3 0  9996
2 20443  98.3055 142.2794 0010685 158.7577 201.4058 14.39878834894729
DELTA 2 R/B(1)          
1 20453U 90008B   26081.71338892  .00072023  00000+0  80399-3 0  9994
2 20453  35.6030  89.2719 0080273  19.7585 340.6234 15.57617714928166
